[{"OBJECT_NAME":"LEMUR-2-DEMBITZ","OBJECT_ID":"2017-042T","EPOCH":"2026-03-09T11:23:53.232288","MEAN_MOTION":15.26947128,"ECCENTRICITY":0.00069617,"INCLINATION":97.3807,"RA_OF_ASC_NODE":250.9241,"ARG_OF_PERICENTER":17.1421,"MEAN_ANOMALY":343.0051,"EPHEMERIS_TYPE":0,"CLASSIFICATION_TYPE":"U","NORAD_CAT_ID":42842,"ELEMENT_SET_NO":999,"REV_AT_EPOCH":47311,"BSTAR":0.00076560825,"MEAN_MOTION_DOT":0.00020231,"MEAN_MOTION_DDOT":0},{"OBJECT_NAME":"STARLINK-36099","OBJECT_ID":"2025-278G","EPOCH":"2026-03-09T10:59:45.290976","MEAN_MOTION":15.27600863,"ECCENTRICITY":0.00018976,"INCLINATION":43.0055,"RA_OF_ASC_NODE":115.6815,"ARG_OF_PERICENTER":280.8029,"MEAN_ANOMALY":79.2609,"EPHEMERIS_TYPE":0,"CLASSIFICATION_TYPE":"U","NORAD_CAT_ID":66797,"ELEMENT_SET_NO":999,"REV_AT_EPOCH":1517,"BSTAR":0.0014044329,"MEAN_MOTION_DOT":0.00038612,"MEAN_MOTION_DDOT":0}]
