LEMUR-2-DEMBITZ         
1 42842U 17042T   26068.47492167  .00020231  00000+0  76561-3 0  9991
2 42842  97.3807 250.9241 0006961  17.1421 343.0051 15.26947128473114
STARLINK-36099          
1 66797U 25278G   26068.45816309  .00038612  00000+0  14044-2 0  9991
2 66797  43.0055 115.6815 0001897 280.8029  79.2609 15.27600863 15170
